CCSDS_OMM_VERS = 2.0
CREATION_DATE  = 
ORIGINATOR     = 

OBJECT_NAME    = STARLINK-36517
OBJECT_ID      = 2026-008K
CENTER_NAME    = EARTH
REF_FRAME      = TEME
TIME_SYSTEM    = UTC
MEAN_ELEMENT_THEORY = SGP/SGP4

EPOCH          = 2026-01-27T06:00:00.999648
MEAN_MOTION    = 15.86813958
ECCENTRICITY   = .00012806
INCLINATION    = 43.0009
RA_OF_ASC_NODE = 85.1422
ARG_OF_PERICENTER = 270.9764
MEAN_ANOMALY   = 222.7345

EPHEMERIS_TYPE = 0
CLASSIFICATION_TYPE = U
NORAD_CAT_ID   = 67454
ELEMENT_SET_NO = 999
REV_AT_EPOCH   = 315
BSTAR          = -.57795494E-2
MEAN_MOTION_DOT = -.1345474E-1
MEAN_MOTION_DDOT = 0

CCSDS_OMM_VERS = 2.0
CREATION_DATE  = 
ORIGINATOR     = 

OBJECT_NAME    = STARLINK-36516
OBJECT_ID      = 2026-008L
CENTER_NAME    = EARTH
REF_FRAME      = TEME
TIME_SYSTEM    = UTC
MEAN_ELEMENT_THEORY = SGP/SGP4

EPOCH          = 2026-01-27T06:00:00.999648
MEAN_MOTION    = 15.86823500
ECCENTRICITY   = .00014053
INCLINATION    = 43.0013
RA_OF_ASC_NODE = 85.1241
ARG_OF_PERICENTER = 269.2418
MEAN_ANOMALY   = 231.9467

EPHEMERIS_TYPE = 0
CLASSIFICATION_TYPE = U
NORAD_CAT_ID   = 67455
ELEMENT_SET_NO = 999
REV_AT_EPOCH   = 313
BSTAR          = -.59100409E-2
MEAN_MOTION_DOT = -.1372664E-1
MEAN_MOTION_DDOT = 0

CCSDS_OMM_VERS = 2.0
CREATION_DATE  = 
ORIGINATOR     = 

OBJECT_NAME    = STARLINK-36493
OBJECT_ID      = 2026-008M
CENTER_NAME    = EARTH
REF_FRAME      = TEME
TIME_SYSTEM    = UTC
MEAN_ELEMENT_THEORY = SGP/SGP4

EPOCH          = 2026-01-27T06:00:00.999648
MEAN_MOTION    = 15.86834492
ECCENTRICITY   = .00011293
INCLINATION    = 43.0012
RA_OF_ASC_NODE = 85.1378
ARG_OF_PERICENTER = 273.3049
MEAN_ANOMALY   = 222.3914

EPHEMERIS_TYPE = 0
CLASSIFICATION_TYPE = U
NORAD_CAT_ID   = 67456
ELEMENT_SET_NO = 999
REV_AT_EPOCH   = 313
BSTAR          = -.58119166E-2
MEAN_MOTION_DOT = -.1353174E-1
MEAN_MOTION_DDOT = 0

CCSDS_OMM_VERS = 2.0
CREATION_DATE  = 
ORIGINATOR     = 

OBJECT_NAME    = STARLINK-36529
OBJECT_ID      = 2026-008N
CENTER_NAME    = EARTH
REF_FRAME      = TEME
TIME_SYSTEM    = UTC
MEAN_ELEMENT_THEORY = SGP/SGP4

EPOCH          = 2026-01-27T06:00:00.999648
MEAN_MOTION    = 15.86826630
ECCENTRICITY   = .00013147
INCLINATION    = 43.0011
RA_OF_ASC_NODE = 85.1304
ARG_OF_PERICENTER = 272.0979
MEAN_ANOMALY   = 226.4177

EPHEMERIS_TYPE = 0
CLASSIFICATION_TYPE = U
NORAD_CAT_ID   = 67457
ELEMENT_SET_NO = 999
REV_AT_EPOCH   = 313
BSTAR          = -.58631602E-2
MEAN_MOTION_DOT = -.1363268E-1
MEAN_MOTION_DDOT = 0

CCSDS_OMM_VERS = 2.0
CREATION_DATE  = 
ORIGINATOR     = 

OBJECT_NAME    = STARLINK-36528
OBJECT_ID      = 2026-008P
CENTER_NAME    = EARTH
REF_FRAME      = TEME
TIME_SYSTEM    = UTC
MEAN_ELEMENT_THEORY = SGP/SGP4

EPOCH          = 2026-01-27T06:00:00.999648
MEAN_MOTION    = 15.86809704
ECCENTRICITY   = .00011773
INCLINATION    = 43.0012
RA_OF_ASC_NODE = 85.1165
ARG_OF_PERICENTER = 271.7106
MEAN_ANOMALY   = 232.4080

EPHEMERIS_TYPE = 0
CLASSIFICATION_TYPE = U
NORAD_CAT_ID   = 67458
ELEMENT_SET_NO = 999
REV_AT_EPOCH   = 315
BSTAR          = -.59564E-2
MEAN_MOTION_DOT = -.1381054E-1
MEAN_MOTION_DDOT = 0

CCSDS_OMM_VERS = 2.0
CREATION_DATE  = 
ORIGINATOR     = 

OBJECT_NAME    = STARLINK-36546
OBJECT_ID      = 2026-008Q
CENTER_NAME    = EARTH
REF_FRAME      = TEME
TIME_SYSTEM    = UTC
MEAN_ELEMENT_THEORY = SGP/SGP4

EPOCH          = 2026-01-27T06:00:00.999648
MEAN_MOTION    = 15.86775984
ECCENTRICITY   = .000131
INCLINATION    = 43.0011
RA_OF_ASC_NODE = 85.1073
ARG_OF_PERICENTER = 270.8865
MEAN_ANOMALY   = 236.8297

EPHEMERIS_TYPE = 0
CLASSIFICATION_TYPE = U
NORAD_CAT_ID   = 67459
ELEMENT_SET_NO = 999
REV_AT_EPOCH   = 313
BSTAR          = -.60489609E-2
MEAN_MOTION_DOT = -.1397777E-1
MEAN_MOTION_DDOT = 0

CCSDS_OMM_VERS = 2.0
CREATION_DATE  = 
ORIGINATOR     = 

OBJECT_NAME    = STARLINK-36523
OBJECT_ID      = 2026-008R
CENTER_NAME    = EARTH
REF_FRAME      = TEME
TIME_SYSTEM    = UTC
MEAN_ELEMENT_THEORY = SGP/SGP4

EPOCH          = 2026-01-27T12:00:01.999296
MEAN_MOTION    = 15.85966808
ECCENTRICITY   = .0001185
INCLINATION    = 43.0013
RA_OF_ASC_NODE = 83.5587
ARG_OF_PERICENTER = 284.7823
MEAN_ANOMALY   = 215.6783

EPHEMERIS_TYPE = 0
CLASSIFICATION_TYPE = U
NORAD_CAT_ID   = 67460
ELEMENT_SET_NO = 999
REV_AT_EPOCH   = 319
BSTAR          = -.61946E-2
MEAN_MOTION_DOT = -.1377917E-1
MEAN_MOTION_DDOT = 0

CCSDS_OMM_VERS = 2.0
CREATION_DATE  = 
ORIGINATOR     = 

OBJECT_NAME    = STARLINK-36522
OBJECT_ID      = 2026-008S
CENTER_NAME    = EARTH
REF_FRAME      = TEME
TIME_SYSTEM    = UTC
MEAN_ELEMENT_THEORY = SGP/SGP4

EPOCH          = 2026-01-27T06:00:00.999648
MEAN_MOTION    = 15.86740249
ECCENTRICITY   = .00010267
INCLINATION    = 43.0014
RA_OF_ASC_NODE = 85.0919
ARG_OF_PERICENTER = 274.0093
MEAN_ANOMALY   = 239.8436

EPHEMERIS_TYPE = 0
CLASSIFICATION_TYPE = U
NORAD_CAT_ID   = 67461
ELEMENT_SET_NO = 999
REV_AT_EPOCH   = 313
BSTAR          = -.61813475E-2
MEAN_MOTION_DOT = -.1421883E-1
MEAN_MOTION_DDOT = 0

CCSDS_OMM_VERS = 2.0
CREATION_DATE  = 
ORIGINATOR     = 

OBJECT_NAME    = STARLINK-36504
OBJECT_ID      = 2026-008T
CENTER_NAME    = EARTH
REF_FRAME      = TEME
TIME_SYSTEM    = UTC
MEAN_ELEMENT_THEORY = SGP/SGP4

EPOCH          = 2026-01-27T12:00:01.999296
MEAN_MOTION    = 15.85911679
ECCENTRICITY   = .0001251
INCLINATION    = 43.0015
RA_OF_ASC_NODE = 83.5433
ARG_OF_PERICENTER = 285.4334
MEAN_ANOMALY   = 221.1499

EPHEMERIS_TYPE = 0
CLASSIFICATION_TYPE = U
NORAD_CAT_ID   = 67462
ELEMENT_SET_NO = 999
REV_AT_EPOCH   = 319
BSTAR          = -.63379E-2
MEAN_MOTION_DOT = -.1402334E-1
MEAN_MOTION_DDOT = 0

CCSDS_OMM_VERS = 2.0
CREATION_DATE  = 
ORIGINATOR     = 

OBJECT_NAME    = STARLINK-36505
OBJECT_ID      = 2026-008U
CENTER_NAME    = EARTH
REF_FRAME      = TEME
TIME_SYSTEM    = UTC
MEAN_ELEMENT_THEORY = SGP/SGP4

EPOCH          = 2026-01-27T12:00:01.999296
MEAN_MOTION    = 15.85870770
ECCENTRICITY   = .0001187
INCLINATION    = 43.0018
RA_OF_ASC_NODE = 83.5354
ARG_OF_PERICENTER = 282.6808
MEAN_ANOMALY   = 227.1798

EPHEMERIS_TYPE = 0
CLASSIFICATION_TYPE = U
NORAD_CAT_ID   = 67463
ELEMENT_SET_NO = 999
REV_AT_EPOCH   = 317
BSTAR          = -.64068E-2
MEAN_MOTION_DOT = -.141303E-1
MEAN_MOTION_DDOT = 0

CCSDS_OMM_VERS = 2.0
CREATION_DATE  = 
ORIGINATOR     = 

OBJECT_NAME    = STARLINK-36421
OBJECT_ID      = 2026-008V
CENTER_NAME    = EARTH
REF_FRAME      = TEME
TIME_SYSTEM    = UTC
MEAN_ELEMENT_THEORY = SGP/SGP4

EPOCH          = 2026-01-27T12:00:01.999296
MEAN_MOTION    = 15.85825819
ECCENTRICITY   = .0001159
INCLINATION    = 43.0018
RA_OF_ASC_NODE = 83.5270
ARG_OF_PERICENTER = 286.2507
MEAN_ANOMALY   = 226.9464

EPHEMERIS_TYPE = 0
CLASSIFICATION_TYPE = U
NORAD_CAT_ID   = 67464
ELEMENT_SET_NO = 999
REV_AT_EPOCH   = 317
BSTAR          = -.65073E-2
MEAN_MOTION_DOT = -.1458396E-1
MEAN_MOTION_DDOT = 0

CCSDS_OMM_VERS = 2.0
CREATION_DATE  = 
ORIGINATOR     = 

OBJECT_NAME    = STARLINK-36437
OBJECT_ID      = 2026-008W
CENTER_NAME    = EARTH
REF_FRAME      = TEME
TIME_SYSTEM    = UTC
MEAN_ELEMENT_THEORY = SGP/SGP4

EPOCH          = 2026-01-27T12:00:01.999296
MEAN_MOTION    = 15.85802289
ECCENTRICITY   = .00013
INCLINATION    = 43.0017
RA_OF_ASC_NODE = 83.5195
ARG_OF_PERICENTER = 279.9276
MEAN_ANOMALY   = 236.0929

EPHEMERIS_TYPE = 0
CLASSIFICATION_TYPE = U
NORAD_CAT_ID   = 67465
ELEMENT_SET_NO = 999
REV_AT_EPOCH   = 317
BSTAR          = -.65735E-2
MEAN_MOTION_DOT = -.1470121E-1
MEAN_MOTION_DDOT = 0

