STARLINK-36517          
1 67454U 26008K   26027.25001157 -.01345474  00000+0 -57795-2 0  9994
2 67454  43.0009  85.1422 0001280 270.9764 222.7345 15.86813958  3150
STARLINK-36516          
1 67455U 26008L   26027.25001157 -.01372664  00000+0 -59100-2 0  9998
2 67455  43.0013  85.1241 0001405 269.2418 231.9467 15.86823500  3130
STARLINK-36493          
1 67456U 26008M   26027.25001157 -.01353174  00000+0 -58119-2 0  9993
2 67456  43.0012  85.1378 0001129 273.3049 222.3914 15.86834492  3133
STARLINK-36529          
1 67457U 26008N   26027.25001157 -.01363268  00000+0 -58632-2 0  9999
2 67457  43.0011  85.1304 0001314 272.0979 226.4177 15.86826630  3137
STARLINK-36528          
1 67458U 26008P   26027.25001157 -.01381054  00000+0 -59564-2 0  9998
2 67458  43.0012  85.1165 0001177 271.7106 232.4080 15.86809704  3154
STARLINK-36546          
1 67459U 26008Q   26027.25001157 -.01397777  00000+0 -60490-2 0  9998
2 67459  43.0011  85.1073 0001310 270.8865 236.8297 15.86775984  3131
STARLINK-36523          
1 67460U 26008R   26027.50002314 -.01377917  00000+0 -61946-2 0  9995
2 67460  43.0013  83.5587 0001185 284.7823 215.6783 15.85966808  3192
STARLINK-36522          
1 67461U 26008S   26027.25001157 -.01421883  00000+0 -61813-2 0  9997
2 67461  43.0014  85.0919 0001026 274.0093 239.8436 15.86740249  3132
STARLINK-36504          
1 67462U 26008T   26027.50002314 -.01402334  00000+0 -63379-2 0  9991
2 67462  43.0015  83.5433 0001251 285.4334 221.1499 15.85911679  3197
STARLINK-36505          
1 67463U 26008U   26027.50002314 -.01413030  00000+0 -64068-2 0  9993
2 67463  43.0018  83.5354 0001187 282.6808 227.1798 15.85870770  3178
STARLINK-36421          
1 67464U 26008V   26027.50002314 -.01458396  00000+0 -65073-2 0  9995
2 67464  43.0018  83.5270 0001159 286.2507 226.9464 15.85825819  3172
STARLINK-36437          
1 67465U 26008W   26027.50002314 -.01470121  00000+0 -65735-2 0  9991
2 67465  43.0017  83.5195 0001300 279.9276 236.0929 15.85802289  3172
